[Satellite]
VERSION=1.1
NAME=CZ-6A DEB
NICKNAME=CZ-6A DEB
TLE1=1 54452U 22151GC  22342.01419278  .00000116  00000+0  12110-3 0  9991
TLE2=2 54452  98.8681 346.0200 0150669 345.4436  14.2407 13.88239771  3407
STATUS=0
